[
    {
        "OBJECT_NAME": "BLUEBIRD-1",
        "NORAD_CAT_ID": 54001,
        "EPOCH": "2025-01-01T00:00:00.000000",
        "TLE_LINE1": "1 54001U 23001A   25001.12345678  .00001234  00000-0  10270-3 0  9991",
        "TLE_LINE2": "2 54001  51.6431  21.2862 0007417  92.3844  10.1234 15.48912345123456"
    },
    {
        "OBJECT_NAME": "BLUEBIRD-2",
        "NORAD_CAT_ID": 54002,
        "EPOCH": "2025-01-01T00:00:00.000000",
        "TLE_LINE1": "1 54002U 23002A   25001.12345678  .00001234  00000-0  10270-3 0  9992",
        "TLE_LINE2": "2 54002  51.6431  21.2862 0007417  92.3844  10.1234 15.48912345123457"
    }
]
